AL MUNTHER              
1 63240U 25052AG  26068.64540749  .00017933  00000+0  65015-3 0  9992
2 63240  97.4001 323.9152 0008027 130.7043 229.4895 15.28381521 54798
STARLINK-33651          
1 63588U 25076V   26068.05796201  .00034605  00000+0  12600-2 0  9990
2 63588  42.9966 325.2776 0001367 264.0688  96.0008 15.27609489 51731
